GHOST-4                 
1 59133U 24043AM  25067.91492738  .00016035  00000+0  57552-3 0  9998
2 59133  97.4987 197.3964 0011198  77.2204 283.0286 15.28710703 56125
JACKAL X-1L-002         
1 59134U 24043AN  25067.33167318  .00014067  00000+0  49725-3 0  9994
2 59134  97.4965 196.8350 0010721  77.0983 283.1453 15.29244069 56044
VSP RF A1               
1 59135U 24043AP  25068.11940067  .00008523  00000+0  36171-3 0  9993
2 59135  97.5014 196.4294 0013016  78.5498 281.7200 15.23266277 56077
VSP RF C1               
1 59136U 24043AQ  25068.15597119  .00010030  00000+0  42160-3 0  9995
2 59136  97.4990 196.4143 0012875  77.0493 283.2181 15.23545329 56088
VSP RF B1               
1 59137U 24043AR  25068.15557485  .00009078  00000+0  38194-3 0  9990
2 59137  97.4991 196.4223 0012600  76.0935 284.1703 15.23546445 56085
SENTRY                  
1 59140U 24043AU  25066.91752420  .00034118  00000+0  93888-3 0  9996
2 59140  97.4926 198.0077 0007898  69.4165 290.7926 15.37069772 56084
TIGER-7                 
1 59141U 24043AV  25067.91622696  .00014058  00000+0  40126-3 0  9997
2 59141  97.4905 199.4306 0008656  57.4368 302.7710 15.36110995 56265
2024-043AW              
1 59142U 24043AW  25067.35821576  .00026340  00000+0  76465-3 0  9996
2 59142  97.4974 198.4159 0008305  63.3810 296.8283 15.35448458 56137
2024-043AX              
1 59143U 24043AX  25067.63406114  .00362481  00000+0  21178-2 0  9994
2 59143  97.4857 204.5986 0005883 307.0673  53.0054 15.77362585 56555
MH-1                    
1 59145U 24043AZ  25068.12163599  .00288067  00000+0  23347-2 0  9995
2 59145  97.4893 204.3749 0004858 316.5852  43.5027 15.69883686 56585
LEMUR-2-JOHNNYTRUONG    
1 59146U 24043BA  25067.83999795  .00024243  00000+0  75986-3 0  9999
2 59146  97.4898 198.2175 0007222  64.8113 295.3877 15.33043442 56181
LEMUR-2-ROCINANTE       
1 59147U 24043BB  25067.85006878  .00024115  00000+0  75884-3 0  9998
2 59147  97.4919 198.2972 0007778  60.4759 299.7257 15.32914612 56180
HAMMER                  
1 59148U 24043BC  25068.12229753  .00018941  00000+0  62035-3 0  9993
2 59148  97.4947 198.7690 0009292  49.2923 310.9124 15.31668667 56224
STARLINK-31312          
1 59152U 24044A   25067.78281182 -.00000203  00000+0  24157-5 0  9992
2 59152  43.0035 325.0531 0001611 272.3709  87.6963 15.40706389 58192
STARLINK-31308          
1 59153U 24044B   25068.12118673 -.00000288  00000+0  36020-6 0  9992
2 59153  43.0014 325.9822 0001234 269.4853  90.5862 15.40688675 58222
STARLINK-31270          
1 59154U 24044C   25067.28145401  .00002082  00000+0  89380-4 0  9996
2 59154  43.0100  15.8267 0001084 284.2481  75.8250 15.25917922 57579
STARLINK-31341          
1 59155U 24044D   25068.04674151  .00000934  00000+0  45554-4 0  9990
2 59155  42.9982  12.1415 0000556 307.8918  52.1883 15.25899283 57626
STARLINK-31338          
1 59156U 24044E   25068.17538495  .00045387  00000+0  17323-2 0  9997
2 59156  43.0008  11.3840 0001957 267.9988  92.0638 15.25946437 57377
STARLINK-31334          
1 59157U 24044F   25068.17310710  .00009166  00000+0  35942-3 0  9999
2 59157  43.0011  11.3665 0001401 265.0179  95.0512 15.25944650 57483
STARLINK-31297          
1 59158U 24044G   25067.99924215  .00003478  00000+0  14282-3 0  9994
2 59158  43.0013  11.7582 0002762 278.0800  81.9738 15.25890718 57674
STARLINK-31182          
1 59159U 24044H   25067.94367294  .00002271  00000+0  92071-4 0  9991
2 59159  42.9983  12.2172 0002084 307.2268  52.8393 15.27560559 57662
STARLINK-31327          
1 59160U 24044J   25067.93151860  .00000239  00000+0  18971-4 0  9991
2 59160  43.0011  12.1101 0000746 259.2834 100.7933 15.25907613 57664
STARLINK-31256          
1 59161U 24044K   25067.94751548  .00006219  00000+0  23534-3 0  9996
2 59161  42.9942  12.2436 0001577 264.9456  95.1215 15.27575176 57661
STARLINK-31272          
1 59162U 24044L   25068.01674732  .00000768  00000+0  37454-4 0  9995
2 59162  43.0037  11.9023 0001273 260.4913  99.5794 15.27574890 57627
STARLINK-31278          
1 59163U 24044M   25067.00003472 -.00067226  00000+0 -24512-2 0  9994
2 59163  43.0029  17.6959 0001406 269.2661 231.7768 15.27638700  5811
STARLINK-31309          
1 59164U 24044N   25067.83336806  .00072810  00000+0  26296-2 0  9990
2 59164  43.0024  13.0359 0001639 249.9126 137.9697 15.27577403  5797
STARLINK-31325          
1 59165U 24044P   25068.15499848  .00004222  00000+0  17099-3 0  9997
2 59165  43.0016  11.2098 0001021 271.9193  88.1542 15.25943345 57448
STARLINK-31342          
1 59166U 24044Q   25067.95639133  .00000340  00000+0  22843-4 0  9999
2 59166  43.0002  12.2915 0000936 248.2782 111.7969 15.25914460 57664
STARLINK-31298          
1 59167U 24044R   25067.23409344  .00001095  00000+0  51689-4 0  9998
2 59167  43.0052  16.3302 0001336 283.6319  76.4384 15.25917327 57527
STARLINK-31322          
1 59168U 24044S   25067.20208060 -.00002069  00000+0 -69308-4 0  9999
2 59168  43.0035  16.1004 0001155 277.2825  82.7895 15.25894988 57553
STARLINK-31329          
1 59169U 24044T   25067.20694559  .00000861  00000+0  42757-4 0  9997
2 59169  43.0009  16.1308 0001097 265.1042  94.9683 15.25916418 57524
STARLINK-31340          
1 59170U 24044U   25068.10945168  .00001543  00000+0  44191-4 0  9996
2 59170  43.0049 334.5590 0001717 273.1555  86.9105 15.40709792 57967
STARLINK-31344          
1 59171U 24044V   25067.99019120 -.00002208  00000+0 -74618-4 0  9991
2 59171  43.0049  11.6919 0001502 270.2421  89.8258 15.25900981 57673
STARLINK-31348          
1 59172U 24044W   25068.04739898 -.00001654  00000+0 -32344-4 0  9994
2 59172  43.0043 326.2859 0002049 272.7635  87.2987 15.40688785 57940
STARLINK-31289          
1 59173U 24044X   25067.22052236  .00000530  00000+0  30090-4 0  9994
2 59173  43.0082  16.2233 0000644 287.2800  72.7981 15.25911341 57550
STARLINK-31283          
1 59174U 24044Y   25068.25001157  .00051878  00000+0  12407-2 0  9996
2 59174  43.0015 325.3617 0001671 271.6377  34.0960 15.40700367 58240
EXO-0                   
1 59175U 23174DK  25067.77659000  .00011678  00000+0  47631-3 0  9994
2 59175  97.4252 144.7723 0011308  27.3689 332.8142 15.24533165 73899
STARLINK-31439          
1 59178U 24045A   25068.02690981  .00000799  00000+0  26389-4 0  9997
2 59178  43.0033 355.4039 0001797 278.1092  81.9560 15.40694070 57262
STARLINK-31410          
1 59179U 24045B   25068.13271384  .00007032  00000+0  26473-3 0  9992
2 59179  43.0057 357.0632 0001793 274.0506  86.0140 15.27593101 57254
STARLINK-31395          
1 59180U 24045C   25068.16097361  .00003358  00000+0  13141-3 0  9993
2 59180  43.0016 357.2708 0002917 277.3477  82.7043 15.27600247 57254
STARLINK-31486          
1 59181U 24045D   25068.15207826  .00002373  00000+0  64054-4 0  9998
2 59181  43.0044 354.6143 0000739 281.4502  78.6271 15.40702505 57280
STARLINK-31411          
1 59182U 24045E   25068.17241625  .00000981  00000+0  45144-4 0  9998
2 59182  42.9974 356.5050 0000373 330.6664  29.4167 15.27582668 57266
STARLINK-31347          
1 59183U 24045F   25067.73657488  .00093805  00000+0  11776-2 0  9997
2 59183  42.9978 326.7369 0011981 236.2981 123.6740 15.58616365 57566
STARLINK-31382          
1 59184U 24045G   25067.81222605 -.00000002  00000+0  94458-5 0  9995
2 59184  43.0029 358.9557 0000729 257.4840 102.5930 15.27578728 57203
STARLINK-31394          
1 59185U 24045H   25067.84782010  .00001046  00000+0  32298-4 0  9991
2 59185  43.0052 354.9203 0001585 270.6402  89.4273 15.40707794 57256
STARLINK-31403          
1 59186U 24045J   25067.74386999  .00000458  00000+0  18228-4 0  9990
2 59186  43.0053 340.9303 0001309 287.0810  72.9903 15.40708271 57341
STARLINK-31514          
1 59187U 24045K   25068.13526220  .00006517  00000+0  24573-3 0  9999
2 59187  43.0044 357.0794 0001589 272.8078  87.2591 15.27635835 57255
STARLINK-31478          
1 59188U 24045L   25068.12502485  .00051890  00000+0  18802-2 0  9997
2 59188  43.0046 357.0010 0001764 271.2355  88.8294 15.27610383 57253
STARLINK-31498          
1 59189U 24045M   25068.15071357  .00000265  00000+0  19125-4 0  9991
2 59189  43.0029 357.1875 0000974 269.3082  90.7658 15.27595449 57253
STARLINK-31563          
1 59190U 24045N   25067.19802110  .00003474  00000+0  13563-3 0  9999
2 59190  43.0025   2.0864 0001161 229.8060 130.2690 15.27597700 57114
STARLINK-31551          
1 59191U 24045P   25068.11085957  .00001916  00000+0  79064-4 0  9993
2 59191  43.0066 356.8932 0001839 250.7335 109.3318 15.27611320 57250
STARLINK-31536          
1 59192U 24045Q   25068.16668981 -.00073454  00000+0 -26852-2 0  9996
2 59192  43.0040 356.8119 0001526 267.8385 300.4271 15.27592385 57258
STARLINK-31548          
1 59193U 24045R   25068.15716951 -.00001936  00000+0 -60943-4 0  9994
2 59193  42.9972 357.2375 0000223 118.6471 241.4403 15.27538650 57258
STARLINK-31542          
1 59194U 24045S   25068.16470211  .00002771  00000+0  11017-3 0  9995
2 59194  42.9980 356.4413 0000624 346.9120  13.1715 15.27582654 57268
STARLINK-31554          
1 59195U 24045T   25067.22759850 -.00000451  00000+0 -68619-5 0  9998
2 59195  43.0022   2.3047 0001002 265.7758  94.2979 15.27586213 57115
STARLINK-31558          
1 59196U 24045U   25067.77626051 -.00001209  00000+0 -34429-4 0  9998
2 59196  43.0019 358.6872 0000435 343.6594  16.4243 15.27566185 57215
STARLINK-31275          
1 59197U 24045V   25067.23144717  .00001773  00000+0  73926-4 0  9993
2 59197  43.0012   2.3330 0001050 271.5792  88.4939 15.27577150 57118
STARLINK-31590          
1 59198U 24045W   25068.15455305  .00003901  00000+0  15103-3 0  9991
2 59198  43.0003 357.2152 0001502 254.9599 105.1087 15.27621519 57250
STARLINK-31567          
1 59199U 24045X   25068.11728068  .00004534  00000+0  17403-3 0  9995
2 59199  43.0035 356.9473 0001378 260.2138  99.8558 15.27608213 57256
STARLINK-31503          
1 59200U 24045Y   25067.99038379  .00000698  00000+0  34859-4 0  9994
2 59200  43.0026 357.7127 0001601 269.7133  90.3536 15.27606914 57238
